{
"type": "FeatureCollection",
"name": "COMPLETED_2026",
"crs": { "type": "name", "properties": { "name": "urn:ogc:def:crs:OGC:1.3:CRS84" } },
"features": [
{ "type": "Feature", "properties": { "project_id": "PRJ-0007", "project_name": "Rash Field Park Phase II", "project_status": "Completed", "completed_year": "2026", "project_link": "https://www.waterfrontpartnership.org/phase-ii-design-plans", "image_url": "img/projects/rash-field-07-19-2026.jpg", "photo_date": "07/19/2026" }, "geometry": { "type": "Polygon", "coordinates": [ [ [ -76.60759566892645, 39.280891108047143 ], [ -76.610607321148066, 39.280808824417385 ], [ -76.610659368021444, 39.281701623747146 ], [ -76.607652421297246, 39.281807974850395 ], [ -76.60759566892645, 39.280891108047143 ] ] ] } },
{ "type": "Feature", "properties": { "project_id": "PRJ-0008", "project_name": "The Frank", "project_status": "Completed", "completed_year": "2026", "project_link": "https://livethefrank.com/floorplans/", "image_url": null, "photo_date": null }, "geometry": { "type": "Polygon", "coordinates": [ [ [ -76.613254859233336, 39.261142907736691 ], [ -76.614593114380327, 39.261377861054491 ], [ -76.614432904033521, 39.261741392190658 ], [ -76.614204352060767, 39.261889031023834 ], [ -76.612176674238128, 39.26202424838327 ], [ -76.612118878824049, 39.261190502739083 ], [ -76.613254859233336, 39.261142907736691 ] ] ] } },
{ "type": "Feature", "properties": { "project_id": "PRJ-0030", "project_name": "1801 Guilford", "project_status": "Completed", "completed_year": "2026", "project_link": "https://thornhill.appfolio.com/listings/detail/12cdc232-b85a-43cc-ab25-83a98dda530e", "image_url": null, "photo_date": null }, "geometry": { "type": "Polygon", "coordinates": [ [ [ -76.612241025662144, 39.310061304033546 ], [ -76.612281662549236, 39.310683295508817 ], [ -76.612001916053032, 39.310692474940787 ], [ -76.611961212855022, 39.310070483143434 ], [ -76.612241025662144, 39.310061304033546 ] ] ] } },
{ "type": "Feature", "properties": { "project_id": "PRJ-0040", "project_name": "M&T Bank Stadium North Plaza", "project_status": "Completed", "completed_year": "2026", "project_link": "https://www.baltimoreravens.com/stadium/renovations/north-plaza", "image_url": null, "photo_date": null }, "geometry": { "type": "Polygon", "coordinates": [ [ [ -76.622324907452835, 39.275977034928921 ], [ -76.624834807234407, 39.276714348424498 ], [ -76.62353680049668, 39.279509427457114 ], [ -76.623450339854557, 39.279572654732014 ], [ -76.620282206685587, 39.278714607636523 ], [ -76.621317830489787, 39.277117471791243 ], [ -76.622324907452835, 39.275977034928921 ] ] ] } },
{ "type": "Feature", "properties": { "project_id": "PRJ-0010", "project_name": "UMMC Stoler Center for Advanced Medicine", "project_status": "Completed", "completed_year": "2026", "project_link": "https://www.umms.org/umgccc/about/stoler-center-for-advanced-medicine", "image_url": "img/projects/UMMC-Stoler-Center-08-02-1996.jpeg", "photo_date": "08/02/2026" }, "geometry": { "type": "Polygon", "coordinates": [ [ [ -76.62378976314838, 39.289078574162225 ], [ -76.624343307201826, 39.289062126364307 ], [ -76.624307977864859, 39.288322733812052 ], [ -76.623750279045581, 39.288340398480535 ], [ -76.62378976314838, 39.289078574162225 ] ] ] } }
]
}
